{
    "links": {
        "self": "http://www.neowsapp.com/rest/v1/neo/54051186?api_key=iIulBulltgU6a56xZRHN4H3l9WmuAYTsLGpBGhQ2"
    },
    "id": "54051186",
    "neo_reference_id": "54051186",
    "name": "(2020 QO1)",
    "designation": "2020 QO1",
    "nasa_jpl_url": "http://ssd.jpl.nasa.gov/sbdb.cgi?sstr=54051186",
    "absolute_magnitude_h": 27.266,
    "estimated_diameter": {
        "kilometers": {
            "estimated_diameter_min": 0.0093617055,
            "estimated_diameter_max": 0.02093341
        },
        "meters": {
            "estimated_diameter_min": 9.3617055347,
            "estimated_diameter_max": 20.933409961
        },
        "miles": {
            "estimated_diameter_min": 0.0058170923,
            "estimated_diameter_max": 0.0130074139
        },
        "feet": {
            "estimated_diameter_min": 30.7142579866,
            "estimated_diameter_max": 68.6791687365
        }
    },
    "is_potentially_hazardous_asteroid": false,
    "close_approach_data": [
        {
            "close_approach_date": "2019-06-23",
            "close_approach_date_full": "2019-Jun-23 03:02",
            "epoch_date_close_approach": 1561258920000,
            "relative_velocity": {
                "kilometers_per_second": "5.8354907373",
                "kilometers_per_hour": "21007.7666544421",
                "miles_per_hour": "13053.4092303671"
            },
            "miss_distance": {
                "astronomical": "1.8187060845",
                "lunar": "707.4766668705",
                "kilometers": "272074556.397240015",
                "miles": "169059289.961801607"
            },
            "orbiting_body": "Juptr"
        },
        {
            "close_approach_date": "2020-08-20",
            "close_approach_date_full": "2020-Aug-20 22:17",
            "epoch_date_close_approach": 1597961820000,
            "relative_velocity": {
                "kilometers_per_second": "26.4988650019",
                "kilometers_per_hour": "95395.9140068324",
                "miles_per_hour": "59275.3111227454"
            },
            "miss_distance": {
                "astronomical": "0.009451646",
                "lunar": "3.676690294",
                "kilometers": "1413946.10959402",
                "miles": "878585.371956676"
            },
            "orbiting_body": "Earth"
        },
        {
            "close_approach_date": "2020-08-21",
            "close_approach_date_full": "2020-Aug-21 02:13",
            "epoch_date_close_approach": 1597975980000,
            "relative_velocity": {
                "kilometers_per_second": "26.8305298417",
                "kilometers_per_hour": "96589.9074300736",
                "miles_per_hour": "60017.2122028699"
            },
            "miss_distance": {
                "astronomical": "0.0088171535",
                "lunar": "3.4298727115",
                "kilometers": "1319027.383063045",
                "miles": "819605.610218221"
            },
            "orbiting_body": "Moon"
        }
    ],
    "orbital_data": {
        "orbit_id": "5",
        "orbit_determination_date": "2020-10-26 09:36:07",
        "first_observation_date": "2020-08-18",
        "last_observation_date": "2020-08-20",
        "data_arc_in_days": 2,
        "observations_used": 38,
        "orbit_uncertainty": "8",
        "minimum_orbit_intersection": ".0075255",
        "jupiter_tisserand_invariant": "3.412",
        "epoch_osculation": "2459080.5",
        "eccentricity": ".8042528532013955",
        "semi_major_axis": "1.936317385351469",
        "inclination": "1.624586024881551",
        "ascending_node_longitude": "163.0323586516933",
        "orbital_period": "984.1544127223608",
        "perihelion_distance": ".379028603479084",
        "perihelion_argument": "278.5056035217183",
        "aphelion_distance": "3.493606167223854",
        "perihelion_time": "2459127.588207663963",
        "mean_anomaly": "342.7753099108352",
        "mean_motion": ".3657962565083365",
        "equinox": "J2000",
        "orbit_class": {
            "orbit_class_type": "APO",
            "orbit_class_description": "Near-Earth asteroid orbits which cross the Earth’s orbit similar to that of 1862 Apollo",
            "orbit_class_range": "a (semi-major axis) > 1.0 AU; q (perihelion) < 1.017 AU"
        }
    },
    "is_sentry_object": false
}